APRIZESAT 2             
1 28366U 04025A   26164.94487180  .00000142  00000+0  57563-4 0  9992
2 28366  98.1010 331.1089 0104277 259.7521  99.1895 14.38034691151178
SAUDICOMSAT 1           
1 28369U 04025D   26164.92266800  .00000366  00000+0  95021-4 0  9996
2 28369  98.5771 174.9661 0032853  35.4283 324.9087 14.55471483163653
SAUDICOMSAT 2           
1 28370U 04025E   26164.95081199  .00000241  00000+0  73791-4 0  9999
2 28370  98.6641 177.1054 0054140 269.5125  89.9864 14.49979624159638
APRIZESAT 1             
1 28372U 04025G   26164.91754585  .00000208  00000+0  63155-4 0  9999
2 28372  98.6304 175.5542 0044907 163.6736 196.5917 14.51775503161430
NANOSAT-1               
1 28493U 04049B   26164.92423613  .00000950  00000+0  13250-3 0  9999
2 28493  98.2272 301.5055 0002967 317.0749  43.0230 14.80153930154963
SAUDICOMSAT 7           
1 31119U 07012C   26164.90508228  .00000418  00000+0  84060-4 0  9992
2 31119  98.3777 138.9696 0055066 205.5746 154.2731 14.66107615 21958
SAUDICOMSAT 6           
1 31121U 07012E   26164.87485206  .00000574  00000+0  11931-3 0  9990
2 31121  98.4098 132.3296 0071295 338.1625  21.6541 14.62554831 19701
SAUDICOMSAT 5           
1 31124U 07012H   26164.88310928  .00000559  00000+0  10460-3 0  9991
2 31124  98.3488 139.6951 0048290 134.8781 225.6360 14.68152799 23115
SAUDICOMSAT 3           
1 31125U 07012J   26164.91745690  .00000802  00000+0  13870-3 0  9993
2 31125  98.3143 140.2787 0040364  63.2571 297.2756 14.70700900 24341
SAUDICOMSAT 4           
1 31127U 07012L   26164.87515796  .00000442  00000+0  91204-4 0  9990
2 31127  98.3982 137.3781 0062045 268.7951  90.6142 14.64509396 20809
APRIZESAT 4             
1 35684U 09041D   26164.75059840  .00000596  00000+0  77797-4 0  9997
2 35684  98.1413 240.0026 0042622 334.4129  25.4975 14.83875296910858
APRIZESAT 3             
1 35686U 09041F   26164.88896243  .00001490  00000+0  13274-3 0  9992
2 35686  98.2055 317.9550 0062746  78.3611 282.4643 14.96231775915885
S-NET D                 
1 43186U 18014G   26164.70123738  .00005261  00000+0  27216-3 0  9990
2 43186  97.5371  69.5139 0009271  40.9348 319.2580 15.16642878458234
S-NET B                 
1 43187U 18014H   26164.71262184  .00004993  00000+0  25867-3 0  9992
2 43187  97.5379  69.5119 0009796  36.2200 323.9694 15.16613690458236
S-NET A                 
1 43188U 18014J   26164.70013378  .00005299  00000+0  27401-3 0  9997
2 43188  97.5389  69.7072 0009659  37.1264 323.0635 15.16650574458234
S-NET C                 
1 43189U 18014K   26164.98039434  .00004941  00000+0  25598-3 0  9997
2 43189  97.5404  70.0602 0010814  28.2612 331.9206 15.16608046456822
SALSAT                  
1 46495U 20068K   26164.94040297  .00008079  00000+0  28292-3 0  9997
2 46495  97.8844 167.8072 0008282 321.8659  38.1993 15.29757675314864
OOV-CUBE (TUBSAT-30)    
1 60240U 24128F   26164.52889216  .00002174  00000+0  17408-3 0  9995
2 60240  61.9948 238.3294 0045090 132.8997 227.5893 15.02760687105564
LPNTSAT-001 (IOD-1)     
1 68408U 26065A   26164.91380336  .00002794  00000+0  13816-3 0  9990
2 68408  97.4026  45.4930 0017030  21.8000 338.3955 15.18522908 11765
